STARLINK-2022           
1 47643U 21012Z   23320.02359634  .00019512  00000+0  13252-2 0  9994
2 47643  53.0555 243.4741 0001712  81.8042 278.3141 15.06399660152434
